GLOBALSTAR M063 [+]     
1 26081U 00008A   24037.25164223 -.00000048  00000+0  51238-3 0  9990
2 26081  51.9987 340.3004 0004959  79.4766  69.3876 11.86150981 98600
GLOBALSTAR M062 [-]     
1 26082U 00008B   24038.46936850 -.00000028  00000+0  49997-3 0  9995
2 26082  51.9842 113.4926 0007792 133.7746 239.6512 12.43428657 97456
GLOBALSTAR M060 [-]     
1 26083U 00008C   24038.35941167 -.00000123  00000+0 -32309-3 0  9997
2 26083  52.0050   3.6784 0003037 194.5233 331.9177 12.17625141 92148
GLOBALSTAR M064 [-]     
1 26084U 00008D   24038.12056584 -.00000079  00000+0  65345-4 0  9999
2 26084  52.0029  82.6880 0001868 174.4192 185.6662 11.88515659108229
GLOBALSTAR M065 [+]     
1 31571U 07020A   24037.87087380 -.00000101  00000+0  12011-4 0  9994
2 31571  51.9907 296.8364 0009637 290.4196 145.7285 12.61961819771049
GLOBALSTAR M069 [+]     
1 31573U 07020C   24037.99144642 -.00000049  00000+0  30571-3 0  9995
2 31573  51.9932 252.4651 0001761  77.0734  70.5756 12.62266002771819
GLOBALSTAR M072 [+]     
1 31574U 07020D   24038.05151098 -.00000086  00000+0  99820-4 0  9991
2 31574  52.0113 348.1001 0000615  13.6712  66.6112 12.62283010770329
GLOBALSTAR M071 [P]     
1 31576U 07020F   24038.02264625 -.00000045  00000+0  33032-3 0  9998
2 31576  52.0050 257.4333 0002064  83.8321  85.2195 12.62267132771805
